[
    {
        "Altitude(m)": 604234.5994145403,
        "Argument of Periapsis(deg)": 0.0,
        "Eccentricity": 0.0,
        "Inclination(deg)": 60.0,
        "Latitude(deg)": 14.117179791173436,
        "Longitude(deg)": -148.27264660831014,
        "Mean Anomaly(deg)": 163.6364,
        "RAAN(deg)": 140.0,
        "Satellite Name": "Test1 626",
        "Satellite Number": 626,
        "Semi-Major Axis(m)": 6980739.136638005,
        "Time(s)": 0
    },
    {
        "Altitude(m)": 604223.4282378693,
        "Argument of Periapsis(deg)": 0.00010418945913296404,
        "Eccentricity": 0.0,
        "Inclination(deg)": 60.0,
        "Latitude(deg)": 13.58231563267356,
        "Longitude(deg)": -147.9857385255087,
        "Mean Anomaly(deg)": 164.25650614546183,
        "RAAN(deg)": 139.99957995086024,
        "Satellite Name": "Test1 626",
        "Satellite Number": 626,
        "Semi-Major Axis(m)": 6980739.136638005,
        "Time(s)": 10
    },
    {
        "Altitude(m)": 604215.2123351077,
        "Argument of Periapsis(deg)": 0.0002083789182659281,
        "Eccentricity": 0.0,
        "Inclination(deg)": 60.0,
        "Latitude(deg)": 13.047003340947208,
        "Longitude(deg)": -147.70030094566016,
        "Mean Anomaly(deg)": 164.87661229092365,
        "RAAN(deg)": 139.99915990172053,
        "Satellite Name": "Test1 626",
        "Satellite Number": 626,
        "Semi-Major Axis(m)": 6980739.136638005,
        "Time(s)": 20
    },
    {
        "Altitude(m)": 604209.9795981827,
        "Argument of Periapsis(deg)": 0.00031256837739889213,
        "Eccentricity": 0.0,
        "Inclination(deg)": 60.0,
        "Latitude(deg)": 12.511263304545439,
        "Longitude(deg)": -147.41626915551487,
        "Mean Anomaly(deg)": 165.4967184363855,
        "RAAN(deg)": 139.99873985258074,
        "Satellite Name": "Test1 626",
        "Satellite Number": 626,
        "Semi-Major Axis(m)": 6980739.136638005,
        "Time(s)": 30
    },
    {
        "Altitude(m)": 604207.7565749622,
        "Argument of Periapsis(deg)": 0.0004167578365318562,
        "Eccentricity": 0.0,
        "Inclination(deg)": 60.0,
        "Latitude(deg)": 11.975115636064531,
        "Longitude(deg)": -147.13357878719836,
        "Mean Anomaly(deg)": 166.11682458184734,
        "RAAN(deg)": 139.998319803441,
        "Satellite Name": "Test1 626",
        "Satellite Number": 626,
        "Semi-Major Axis(m)": 6980739.136638005,
        "Time(s)": 40
    },
    {
        "Altitude(m)": 604208.5684534872,
        "Argument of Periapsis(deg)": 0.0005209472956648203,
        "Eccentricity": 0.0,
        "Inclination(deg)": 60.0,
        "Latitude(deg)": 11.438580186094846,
        "Longitude(deg)": -146.85216678649462,
        "Mean Anomaly(deg)": 166.7369307273092,
        "RAAN(deg)": 139.99789975430127,
        "Satellite Name": "Test1 626",
        "Satellite Number": 626,
        "Semi-Major Axis(m)": 6980739.136638005,
        "Time(s)": 50
    },
    {
        "Altitude(m)": 604212.4390468285,
        "Argument of Periapsis(deg)": 0.0006251367547977843,
        "Eccentricity": 0.0,
        "Inclination(deg)": 60.0,
        "Latitude(deg)": 10.901676556810974,
        "Longitude(deg)": -146.57197086894428,
        "Mean Anomaly(deg)": 167.357036872771,
        "RAAN(deg)": 139.99747970516154,
        "Satellite Name": "Test1 626",
        "Satellite Number": 626,
        "Semi-Major Axis(m)": 6980739.136638005,
        "Time(s)": 60
    },
    {
        "Altitude(m)": 604219.390778611,
        "Argument of Periapsis(deg)": 0.0007293262139307483,
        "Eccentricity": 0.0,
        "Inclination(deg)": 60.0,
        "Latitude(deg)": 10.364424115223782,
        "Longitude(deg)": -146.29292897660108,
        "Mean Anomaly(deg)": 167.97714301823285,
        "RAAN(deg)": 139.99705965602178,
        "Satellite Name": "Test1 626",
        "Satellite Number": 626,
        "Semi-Major Axis(m)": 6980739.136638005,
        "Time(s)": 70
    },
    {
        "Altitude(m)": 604229.4446692237,
        "Argument of Periapsis(deg)": 0.0008335156730637124,
        "Eccentricity": 0.0,
        "Inclination(deg)": 60.0,
        "Latitude(deg)": 9.82684200611622,
        "Longitude(deg)": -146.0149802482912,
        "Mean Anomaly(deg)": 168.5972491636947,
        "RAAN(deg)": 139.99663960688204,
        "Satellite Name": "Test1 626",
        "Satellite Number": 626,
        "Semi-Major Axis(m)": 6980739.136638005,
        "Time(s)": 80
    },
    {
        "Altitude(m)": 604242.6203227157,
        "Argument of Periapsis(deg)": 0.0009377051321966765,
        "Eccentricity": 0.0,
        "Inclination(deg)": 60.0,
        "Latitude(deg)": 9.288949164675081,
        "Longitude(deg)": -145.73806447759884,
        "Mean Anomaly(deg)": 169.2173553091565,
        "RAAN(deg)": 139.9962195577423,
        "Satellite Name": "Test1 626",
        "Satellite Number": 626,
        "Semi-Major Axis(m)": 6980739.136638005,
        "Time(s)": 90
    },
    {
        "Altitude(m)": 604258.9359143338,
        "Argument of Periapsis(deg)": 0.0010418945913296407,
        "Eccentricity": 0.0,
        "Inclination(deg)": 60.0,
        "Latitude(deg)": 8.750764328839411,
        "Longitude(deg)": -145.4621215714215,
        "Mean Anomaly(deg)": 169.83746145461834,
        "RAAN(deg)": 139.99579950860257,
        "Satellite Name": "Test1 626",
        "Satellite Number": 626,
        "Semi-Major Axis(m)": 6980739.136638005,
        "Time(s)": 100
    },
    {
        "Altitude(m)": 604278.4081788156,
        "Argument of Periapsis(deg)": 0.0011460840504626045,
        "Eccentricity": 0.0,
        "Inclination(deg)": 60.0,
        "Latitude(deg)": 8.212306051385564,
        "Longitude(deg)": -145.18709252194006,
        "Mean Anomaly(deg)": 170.4575676000801,
        "RAAN(deg)": 139.9953794594628,
        "Satellite Name": "Test1 626",
        "Satellite Number": 626,
        "Semi-Major Axis(m)": 6980739.136638005,
        "Time(s)": 110
    },
    {
        "Altitude(m)": 604301.0523993316,
        "Argument of Periapsis(deg)": 0.0012502735095955685,
        "Eccentricity": 0.0,
        "Inclination(deg)": 60.0,
        "Latitude(deg)": 7.6735927117590395,
        "Longitude(deg)": -144.91291886622454,
        "Mean Anomaly(deg)": 171.07767374554194,
        "RAAN(deg)": 139.99495941032308,
        "Satellite Name": "Test1 626",
        "Satellite Number": 626,
        "Semi-Major Axis(m)": 6980739.136638005,
        "Time(s)": 120
    },
    {
        "Altitude(m)": 604326.8823971812,
        "Argument of Periapsis(deg)": 0.0013544629687285324,
        "Eccentricity": 0.0,
        "Inclination(deg)": 60.0,
        "Latitude(deg)": 7.134642527674329,
        "Longitude(deg)": -144.63954214632264,
        "Mean Anomaly(deg)": 171.6977798910038,
        "RAAN(deg)": 139.99453936118334,
        "Satellite Name": "Test1 626",
        "Satellite Number": 626,
        "Semi-Major Axis(m)": 6980739.136638005,
        "Time(s)": 130
    },
    {
        "Altitude(m)": 604355.910522154,
        "Argument of Periapsis(deg)": 0.0014586524278614966,
        "Eccentricity": 0.0,
        "Inclination(deg)": 60.0,
        "Latitude(deg)": 6.595473566499157,
        "Longitude(deg)": -144.36690488267132,
        "Mean Anomaly(deg)": 172.31788603646564,
        "RAAN(deg)": 139.9941193120436,
        "Satellite Name": "Test1 626",
        "Satellite Number": 626,
        "Semi-Major Axis(m)": 6980739.136638005,
        "Time(s)": 140
    },
    {
        "Altitude(m)": 604388.147643653,
        "Argument of Periapsis(deg)": 0.0015628418869944607,
        "Eccentricity": 0.0,
        "Inclination(deg)": 60.0,
        "Latitude(deg)": 6.0561037564349816,
        "Longitude(deg)": -144.09495003505737,
        "Mean Anomaly(deg)": 172.93799218192746,
        "RAAN(deg)": 139.99369926290385,
        "Satellite Name": "Test1 626",
        "Satellite Number": 626,
        "Semi-Major Axis(m)": 6980739.136638005,
        "Time(s)": 150
    },
    {
        "Altitude(m)": 604423.6031425213,
        "Argument of Periapsis(deg)": 0.0016670313461274247,
        "Eccentricity": 0.0,
        "Inclination(deg)": 60.0,
        "Latitude(deg)": 5.516550897511322,
        "Longitude(deg)": -143.82362046397,
        "Mean Anomaly(deg)": 173.5580983273893,
        "RAAN(deg)": 139.99327921376414,
        "Satellite Name": "Test1 626",
        "Satellite Number": 626,
        "Semi-Major Axis(m)": 6980739.136638005,
        "Time(s)": 160
    },
    {
        "Altitude(m)": 604462.2849035893,
        "Argument of Periapsis(deg)": 0.0017712208052603888,
        "Eccentricity": 0.0,
        "Inclination(deg)": 60.0,
        "Latitude(deg)": 4.976832672411284,
        "Longitude(deg)": -143.55285990518874,
        "Mean Anomaly(deg)": 174.17820447285115,
        "RAAN(deg)": 139.99285916462438,
        "Satellite Name": "Test1 626",
        "Satellite Number": 626,
        "Semi-Major Axis(m)": 6980739.136638005,
        "Time(s)": 170
    },
    {
        "Altitude(m)": 604504.1993089782,
        "Argument of Periapsis(deg)": 0.001875410264393353,
        "Eccentricity": 0.0,
        "Inclination(deg)": 60.0,
        "Latitude(deg)": 4.4369666571383775,
        "Longitude(deg)": -143.28261243183164,
        "Mean Anomaly(deg)": 174.798310618313,
        "RAAN(deg)": 139.99243911548464,
        "Satellite Name": "Test1 626",
        "Satellite Number": 626,
        "Semi-Major Axis(m)": 6980739.136638005,
        "Time(s)": 180
    },
    {
        "Altitude(m)": 604549.3512321222,
        "Argument of Periapsis(deg)": 0.0019795997235263173,
        "Eccentricity": 0.0,
        "Inclination(deg)": 60.0,
        "Latitude(deg)": 3.8969703315415205,
        "Longitude(deg)": -143.01282191670663,
        "Mean Anomaly(deg)": 175.4184167637748,
        "RAAN(deg)": 139.99201906634488,
        "Satellite Name": "Test1 626",
        "Satellite Number": 626,
        "Semi-Major Axis(m)": 6980739.136638005,
        "Time(s)": 190
    }
]